{"type": "FeatureCollection", "features": [ {"type": "Feature", "properties": {"norad_id": 40697, "name": "SENTINEL-2A", "group": "resource", "lat": -2.5290348987328164, "lon": 55.62738560474227, "alt_km": 792.3093286378598, "timestamp": "2025-12-08T15:42:49.435554+00:00", "meta": {"OBJECT_NAME": "SENTINEL-2A", "OBJECT_ID": "2015-028A", "EPOCH": "2025-12-08T05:39:20.792448", "MEAN_MOTION": 14.30824965, "ECCENTRICITY": 0.00010295, "INCLINATION": 98.5699, "RA_OF_ASC_NODE": 54.8327, "ARG_OF_PERICENTER": 94.8628, "MEAN_ANOMALY": 265.2672, "EPHEMERIS_TYPE": 0, "CLASSIFICATION_TYPE": "U", "NORAD_CAT_ID": 40697, "ELEMENT_SET_NO": 999, "REV_AT_EPOCH": 54642, "BSTAR": 0.00014910809, "MEAN_MOTION_DOT": 3.47e-06, "MEAN_MOTION_DDOT": 0}, "tle": {"line1": "1 40697U 15028A   25342.23565732  .00000347  00000+0  14911-3 0  9993", "line2": "2 40697  98.5699  54.8327 0001029  94.8628 265.2672 14.30824965546425"}}, "geometry": {"type": "Point", "coordinates": [55.62738560474227, -2.5290348987328164]}}, {"type": "Feature", "properties": {"norad_id": 40701, "name": "GAOFEN-8", "group": "resource", "lat": -80.4409798505772, "lon": -72.77391914155947, "alt_km": 461.306082473111, "timestamp": "2025-12-08T15:42:49.435564+00:00", "meta": {"OBJECT_NAME": "GAOFEN-8", "OBJECT_ID": "2015-030A", "EPOCH": "2025-12-08T06:45:47.617632", "MEAN_MOTION": 15.38323859, "ECCENTRICITY": 0.00114188, "INCLINATION": 97.6912, "RA_OF_ASC_NODE": 160.206, "ARG_OF_PERICENTER": 153.4723, "MEAN_ANOMALY": 206.7108, "EPHEMERIS_TYPE": 0, "CLASSIFICATION_TYPE": "U", "NORAD_CAT_ID": 40701, "ELEMENT_SET_NO": 999, "REV_AT_EPOCH": 58202, "BSTAR": 0.00057734325, "MEAN_MOTION_DOT": 0.00021804, "MEAN_MOTION_DDOT": 0}, "tle": {"line1": "1 40701U 15030A   25342.28180113  .00021804  00000+0  57734-3 0  9994", "line2": "2 40701  97.6912 160.2060 0011418 153.4723 206.7108 15.38323859582021"}}, "geometry": {"type": "Point", "coordinates": [-72.77391914155947, -80.4409798505772]}}, {"type": "Feature", "properties": {"norad_id": 40718, "name": "CARBONITE 1 (CBNT-1)", "group": "resource", "lat": -65.0602240119837, "lon": -179.3433550353597, "alt_km": 629.5156234086244, "timestamp": "2025-12-08T15:42:49.435574+00:00", "meta": {"OBJECT_NAME": "CARBONITE 1 (CBNT-1)", "OBJECT_ID": "2015-032D", "EPOCH": "2025-12-08T06:17:40.001856", "MEAN_MOTION": 14.82711808, "ECCENTRICITY": 0.00141368, "INCLINATION": 97.6403, "RA_OF_ASC_NODE": 163.5039, "ARG_OF_PERICENTER": 196.282, "MEAN_ANOMALY": 163.7942, "EPHEMERIS_TYPE": 0, "CLASSIFICATION_TYPE": "U", "NORAD_CAT_ID": 40718, "ELEMENT_SET_NO": 999, "REV_AT_EPOCH": 56104, "BSTAR": 0.00051049494, "MEAN_MOTION_DOT": 4.077e-05, "MEAN_MOTION_DDOT": 0}, "tle": {"line1": "1 40718U 15032D   25342.26226854  .00004077  00000+0  51049-3 0  9991", "line2": "2 40718  97.6403 163.5039 0014136 196.2820 163.7942 14.82711808561049"}}, "geometry": {"type": "Point", "coordinates": [-179.3433550353597, -65.0602240119837]}}, {"type": "Feature", "properties": {"norad_id": 40878, "name": "YAOGAN-27", "group": "resource", "lat": -76.50428110242649, "lon": 20.420128082319984, "alt_km": 1201.5422397897237, "timestamp": "2025-12-08T15:42:49.435585+00:00", "meta": {"OBJECT_NAME": "YAOGAN-27", "OBJECT_ID": "2015-040A", "EPOCH": "2025-12-08T07:00:05.998176", "MEAN_MOTION": 13.16060049, "ECCENTRICITY": 0.00076574, "INCLINATION": 100.1008, "RA_OF_ASC_NODE": 332.113, "ARG_OF_PERICENTER": 297.7298, "MEAN_ANOMALY": 62.3038, "EPHEMERIS_TYPE": 0, "CLASSIFICATION_TYPE": "U", "NORAD_CAT_ID": 40878, "ELEMENT_SET_NO": 999, "REV_AT_EPOCH": 49255, "BSTAR": 3.3633082e-05, "MEAN_MOTION_DOT": -3e-07, "MEAN_MOTION_DDOT": 0}, "tle": {"line1": "1 40878U 15040A   25342.29173609 -.00000030  00000+0  33633-4 0  9995", "line2": "2 40878 100.1008 332.1130 0007657 297.7298  62.3038 13.16060049492558"}}, "geometry": {"type": "Point", "coordinates": [20.420128082319984, -76.50428110242649]}}, {"type": "Feature", "properties": {"norad_id": 40894, "name": "GAOFEN-9 01", "group": "resource", "lat": -38.864519104720145, "lon": -164.4354225866772, "alt_km": 648.1278927802805, "timestamp": "2025-12-08T15:42:49.435595+00:00", "meta": {"OBJECT_NAME": "GAOFEN-9 01", "OBJECT_ID": "2015-047A", "EPOCH": "2025-12-08T06:37:45.709536", "MEAN_MOTION": 14.8240602, "ECCENTRICITY": 0.00287069, "INCLINATION": 97.6547, "RA_OF_ASC_NODE": 21.4245, "ARG_OF_PERICENTER": 48.401, "MEAN_ANOMALY": 311.9657, "EPHEMERIS_TYPE": 0, "CLASSIFICATION_TYPE": "U", "NORAD_CAT_ID": 40894, "ELEMENT_SET_NO": 999, "REV_AT_EPOCH": 55190, "BSTAR": 0.00028345597, "MEAN_MOTION_DOT": 2.236e-05, "MEAN_MOTION_DDOT": 0}, "tle": {"line1": "1 40894U 15047A   25342.27622349  .00002236  00000+0  28346-3 0  9991", "line2": "2 40894  97.6547  21.4245 0028706  48.4010 311.9657 14.82406020551902"}}, "geometry": {"type": "Point", "coordinates": [-164.4354225866772, -38.864519104720145]}}, {"type": "Feature", "properties": {"norad_id": 41026, "name": "YAOGAN-28", "group": "resource", "lat": 63.462483965517606, "lon": -44.60348222217536, "alt_km": 479.1997480015016, "timestamp": "2025-12-08T15:42:49.435605+00:00", "meta": {"OBJECT_NAME": "YAOGAN-28", "OBJECT_ID": "2015-064A", "EPOCH": "2025-12-08T07:19:51.312000", "MEAN_MOTION": 15.24238423, "ECCENTRICITY": 0.00122274, "INCLINATION": 97.2809, "RA_OF_ASC_NODE": 120.2235, "ARG_OF_PERICENTER": 140.4538, "MEAN_ANOMALY": 219.7594, "EPHEMERIS_TYPE": 0, "CLASSIFICATION_TYPE": "U", "NORAD_CAT_ID": 41026, "ELEMENT_SET_NO": 999, "REV_AT_EPOCH": 56157, "BSTAR": 0.00043430962, "MEAN_MOTION_DOT": 0.00010552, "MEAN_MOTION_DDOT": 0}, "tle": {"line1": "1 41026U 15064A   25342.30545500  .00010552  00000+0  43431-3 0  9997", "line2": "2 41026  97.2809 120.2235 0012227 140.4538 219.7594 15.24238423561579"}}, "geometry": {"type": "Point", "coordinates": [-44.60348222217536, 63.462483965517606]}}, {"type": "Feature", "properties": {"norad_id": 41038, "name": "YAOGAN-29", "group": "resource", "lat": 77.17159647343863, "lon": -135.91897026977048, "alt_km": 613.0970468663118, "timestamp": "2025-12-08T15:42:49.435615+00:00", "meta": {"OBJECT_NAME": "YAOGAN-29", "OBJECT_ID": "2015-069A", "EPOCH": "2025-12-08T07:10:01.343424", "MEAN_MOTION": 14.82875486, "ECCENTRICITY": 3.842e-05, "INCLINATION": 98.0223, "RA_OF_ASC_NODE": 5.456, "ARG_OF_PERICENTER": 350.0303, "MEAN_ANOMALY": 10.0903, "EPHEMERIS_TYPE": 0, "CLASSIFICATION_TYPE": "U", "NORAD_CAT_ID": 41038, "ELEMENT_SET_NO": 999, "REV_AT_EPOCH": 54233, "BSTAR": 0.00012133689, "MEAN_MOTION_DOT": 9.29e-06, "MEAN_MOTION_DDOT": 0}, "tle": {"line1": "1 41038U 15069A   25342.29862666  .00000929  00000+0  12134-3 0  9991", "line2": "2 41038  98.0223   5.4560 0000384 350.0303  10.0903 14.82875486542334"}}, "geometry": {"type": "Point", "coordinates": [-135.91897026977048, 77.17159647343863]}}, {"type": "Feature", "properties": {"norad_id": 41167, "name": "KENT RIDGE 1", "group": "resource", "lat": 13.21555973371045, "lon": -57.100815633248274, "alt_km": 490.6363733446433, "timestamp": "2025-12-08T15:42:49.435626+00:00", "meta": {"OBJECT_NAME": "KENT RIDGE 1", "OBJECT_ID": "2015-077B", "EPOCH": "2025-12-08T01:16:57.458784", "MEAN_MOTION": 15.21579216, "ECCENTRICITY": 0.00085579, "INCLINATION": 14.9791, "RA_OF_ASC_NODE": 245.9161, "ARG_OF_PERICENTER": 64.302, "MEAN_ANOMALY": 295.8185, "EPHEMERIS_TYPE": 0, "CLASSIFICATION_TYPE": "U", "NORAD_CAT_ID": 41167, "ELEMENT_SET_NO": 999, "REV_AT_EPOCH": 55192, "BSTAR": 0.0002320405, "MEAN_MOTION_DOT": 6.154e-05, "MEAN_MOTION_DDOT": 0}, "tle": {"line1": "1 41167U 15077B   25342.05344281  .00006154  00000+0  23204-3 0  9991", "line2": "2 41167  14.9791 245.9161 0008557  64.3020 295.8185 15.21579216551929"}}, "geometry": {"type": "Point", "coordinates": [-57.100815633248274, 13.21555973371045]}}, {"type": "Feature", "properties": {"norad_id": 41194, "name": "GAOFEN-4", "group": "resource", "lat": -0.037039768393376804, "lon": 59.0357186691886, "alt_km": 35795.35347030891, "timestamp": "2025-12-08T15:42:49.435638+00:00", "meta": {"OBJECT_NAME": "GAOFEN-4", "OBJECT_ID": "2015-083A", "EPOCH": "2025-12-08T04:02:38.777568", "MEAN_MOTION": 1.00271511, "ECCENTRICITY": 0.00035566, "INCLINATION": 0.1585, "RA_OF_ASC_NODE": 81.0249, "ARG_OF_PERICENTER": 105.4911, "MEAN_ANOMALY": 57.0332, "EPHEMERIS_TYPE": 0, "CLASSIFICATION_TYPE": "U", "NORAD_CAT_ID": 41194, "ELEMENT_SET_NO": 999, "REV_AT_EPOCH": 3661, "BSTAR": 0, "MEAN_MOTION_DOT": -3.32e-06, "MEAN_MOTION_DDOT": 0}, "tle": {"line1": "1 41194U 15083A   25342.16850437 -.00000332  00000+0  00000+0 0  9993", "line2": "2 41194   0.1585  81.0249 0003556 105.4911  57.0332  1.00271511 36618"}}, "geometry": {"type": "Point", "coordinates": [59.0357186691886, -0.037039768393376804]}}, {"type": "Feature", "properties": {"norad_id": 41240, "name": "JASON-3", "group": "resource", "lat": 64.94567296672327, "lon": -85.61825890936416, "alt_km": 1309.1927243001837, "timestamp": "2025-12-08T15:42:49.435649+00:00", "meta": {"OBJECT_NAME": "JASON-3", "OBJECT_ID": "2016-002A", "EPOCH": "2025-12-08T05:53:18.829248", "MEAN_MOTION": 12.87626345, "ECCENTRICITY": 0.00071307, "INCLINATION": 66.039, "RA_OF_ASC_NODE": 167.2734, "ARG_OF_PERICENTER": 270.5464, "MEAN_ANOMALY": 89.4738, "EPHEMERIS_TYPE": 0, "CLASSIFICATION_TYPE": "U", "NORAD_CAT_ID": 41240, "ELEMENT_SET_NO": 999, "REV_AT_EPOCH": 46266, "BSTAR": 7.5642999e-05, "MEAN_MOTION_DOT": -4.3e-07, "MEAN_MOTION_DDOT": 0}, "tle": {"line1": "1 41240U 16002A   25342.24535682 -.00000043  00000+0  75643-4 0  9997", "line2": "2 41240  66.0390 167.2734 0007130 270.5464  89.4738 12.87626345462663"}}, "geometry": {"type": "Point", "coordinates": [-85.61825890936416, 64.94567296672327]}}]}